[{"OBJECT_NAME":"ONEWEB-0656","OBJECT_ID":"2023-029X","EPOCH":"2025-12-07T22:02:11.574528","MEAN_MOTION":13.20770421,"ECCENTRICITY":0.00016205,"INCLINATION":87.9197,"RA_OF_ASC_NODE":312.5716,"ARG_OF_PERICENTER":97.1571,"MEAN_ANOMALY":262.9746,"EPHEMERIS_TYPE":0,"CLASSIFICATION_TYPE":"U","NORAD_CAT_ID":55817,"ELEMENT_SET_NO":999,"REV_AT_EPOCH":13590,"BSTAR":-7.9730764e-5,"MEAN_MOTION_DOT":-1.9e-7,"MEAN_MOTION_DDOT":0},{"OBJECT_NAME":"ONEWEB-0657","OBJECT_ID":"2023-029Y","EPOCH":"2025-12-07T22:31:57.230112","MEAN_MOTION":13.19726614,"ECCENTRICITY":9.929e-5,"INCLINATION":87.9186,"RA_OF_ASC_NODE":343.0388,"ARG_OF_PERICENTER":86.0184,"MEAN_ANOMALY":274.1062,"EPHEMERIS_TYPE":0,"CLASSIFICATION_TYPE":"U","NORAD_CAT_ID":55818,"ELEMENT_SET_NO":999,"REV_AT_EPOCH":13368,"BSTAR":0.00012724927,"MEAN_MOTION_DOT":6.4e-7,"MEAN_MOTION_DDOT":0},{"OBJECT_NAME":"ONEWEB-0658","OBJECT_ID":"2023-029Z","EPOCH":"2025-12-07T22:25:07.069440","MEAN_MOTION":13.19724973,"ECCENTRICITY":0.00019672,"INCLINATION":87.9204,"RA_OF_ASC_NODE":342.9923,"ARG_OF_PERICENTER":76.4517,"MEAN_ANOMALY":283.6835,"EPHEMERIS_TYPE":0,"CLASSIFICATION_TYPE":"U","NORAD_CAT_ID":55819,"ELEMENT_SET_NO":999,"REV_AT_EPOCH":13369,"BSTAR":-5.878438e-6,"MEAN_MOTION_DOT":1.1e-7,"MEAN_MOTION_DDOT":0},{"OBJECT_NAME":"ONEWEB-0660","OBJECT_ID":"2023-029AA","EPOCH":"2025-12-07T22:03:02.731104","MEAN_MOTION":13.14503844,"ECCENTRICITY":0.00021483,"INCLINATION":87.8993,"RA_OF_ASC_NODE":327.7981,"ARG_OF_PERICENTER":87.5965,"MEAN_ANOMALY":272.5411,"EPHEMERIS_TYPE":0,"CLASSIFICATION_TYPE":"U","NORAD_CAT_ID":55820,"ELEMENT_SET_NO":999,"REV_AT_EPOCH":13427,"BSTAR":-0.00043181889,"MEAN_MOTION_DOT":-1.47e-6,"MEAN_MOTION_DDOT":0},{"OBJECT_NAME":"ONEWEB-0661","OBJECT_ID":"2023-029AB","EPOCH":"2025-12-07T22:53:17.299680","MEAN_MOTION":13.14504705,"ECCENTRICITY":0.00021282,"INCLINATION":87.8979,"RA_OF_ASC_NODE":327.8568,"ARG_OF_PERICENTER":90.9361,"MEAN_ANOMALY":269.2013,"EPHEMERIS_TYPE":0,"CLASSIFICATION_TYPE":"U","NORAD_CAT_ID":55821,"ELEMENT_SET_NO":999,"REV_AT_EPOCH":13426,"BSTAR":0.00047687554,"MEAN_MOTION_DOT":1.9e-6,"MEAN_MOTION_DDOT":0},{"OBJECT_NAME":"ONEWEB-0662","OBJECT_ID":"2023-029AC","EPOCH":"2025-12-07T23:43:30.986112","MEAN_MOTION":13.14504588,"ECCENTRICITY":0.00021485,"INCLINATION":87.8986,"RA_OF_ASC_NODE":327.856,"ARG_OF_PERICENTER":85.8897,"MEAN_ANOMALY":274.2478,"EPHEMERIS_TYPE":0,"CLASSIFICATION_TYPE":"U","NORAD_CAT_ID":55822,"ELEMENT_SET_NO":999,"REV_AT_EPOCH":13431,"BSTAR":-0.00042454543,"MEAN_MOTION_DOT":-1.45e-6,"MEAN_MOTION_DDOT":0},{"OBJECT_NAME":"ONEWEB-0663","OBJECT_ID":"2023-029AD","EPOCH":"2025-12-07T23:09:59.914656","MEAN_MOTION":13.20852491,"ECCENTRICITY":0.0002232,"INCLINATION":87.9209,"RA_OF_ASC_NODE":312.6282,"ARG_OF_PERICENTER":79.4541,"MEAN_ANOMALY":280.6843,"EPHEMERIS_TYPE":0,"CLASSIFICATION_TYPE":"U","NORAD_CAT_ID":55823,"ELEMENT_SET_NO":999,"REV_AT_EPOCH":13590,"BSTAR":-0.00016689488,"MEAN_MOTION_DOT":-5.5e-7,"MEAN_MOTION_DDOT":0},{"OBJECT_NAME":"ONEWEB-0664","OBJECT_ID":"2023-029AE","EPOCH":"2025-12-07T21:43:59.949408","MEAN_MOTION":13.20773306,"ECCENTRICITY":0.00019827,"INCLINATION":87.919,"RA_OF_ASC_NODE":312.6465,"ARG_OF_PERICENTER":93.7925,"MEAN_ANOMALY":266.3435,"EPHEMERIS_TYPE":0,"CLASSIFICATION_TYPE":"U","NORAD_CAT_ID":55824,"ELEMENT_SET_NO":999,"REV_AT_EPOCH":13589,"BSTAR":-0.00010672589,"MEAN_MOTION_DOT":-3.0e-7,"MEAN_MOTION_DDOT":0},{"OBJECT_NAME":"ONEWEB-0665","OBJECT_ID":"2023-029AF","EPOCH":"2025-12-07T22:48:43.350336","MEAN_MOTION":13.14503887,"ECCENTRICITY":0.00020503,"INCLINATION":87.8981,"RA_OF_ASC_NODE":327.8353,"ARG_OF_PERICENTER":83.8456,"MEAN_ANOMALY":276.2907,"EPHEMERIS_TYPE":0,"CLASSIFICATION_TYPE":"U","NORAD_CAT_ID":55825,"ELEMENT_SET_NO":999,"REV_AT_EPOCH":13428,"BSTAR":0.00037764339,"MEAN_MOTION_DOT":1.53e-6,"MEAN_MOTION_DDOT":0},{"OBJECT_NAME":"ONEWEB-0666","OBJECT_ID":"2023-029AG","EPOCH":"2025-12-07T23:24:00.272160","MEAN_MOTION":13.20769503,"ECCENTRICITY":0.00011043,"INCLINATION":87.9189,"RA_OF_ASC_NODE":312.6215,"ARG_OF_PERICENTER":83.4418,"MEAN_ANOMALY":276.6841,"EPHEMERIS_TYPE":0,"CLASSIFICATION_TYPE":"U","NORAD_CAT_ID":55826,"ELEMENT_SET_NO":999,"REV_AT_EPOCH":13591,"BSTAR":-0.00013230419,"MEAN_MOTION_DOT":-4.1e-7,"MEAN_MOTION_DDOT":0},{"OBJECT_NAME":"ONEWEB-0667","OBJECT_ID":"2023-029AH","EPOCH":"2025-12-07T21:25:50.886048","MEAN_MOTION":13.20770993,"ECCENTRICITY":0.00020032,"INCLINATION":87.9196,"RA_OF_ASC_NODE":312.5702,"ARG_OF_PERICENTER":85.4764,"MEAN_ANOMALY":274.6598,"EPHEMERIS_TYPE":0,"CLASSIFICATION_TYPE":"U","NORAD_CAT_ID":55827,"ELEMENT_SET_NO":999,"REV_AT_EPOCH":13589,"BSTAR":0.00010250317,"MEAN_MOTION_DOT":5.5e-7,"MEAN_MOTION_DDOT":0},{"OBJECT_NAME":"ONEWEB-0669","OBJECT_ID":"2023-029AJ","EPOCH":"2025-12-07T23:08:06.938016","MEAN_MOTION":13.20770461,"ECCENTRICITY":0.00017076,"INCLINATION":87.9188,"RA_OF_ASC_NODE":312.5909,"ARG_OF_PERICENTER":106.1656,"MEAN_ANOMALY":253.9665,"EPHEMERIS_TYPE":0,"CLASSIFICATION_TYPE":"U","NORAD_CAT_ID":55828,"ELEMENT_SET_NO":999,"REV_AT_EPOCH":13590,"BSTAR":-9.6947448e-5,"MEAN_MOTION_DOT":-2.6e-7,"MEAN_MOTION_DDOT":0},{"OBJECT_NAME":"ONEWEB-0670","OBJECT_ID":"2023-029AK","EPOCH":"2025-12-07T22:16:45.512256","MEAN_MOTION":13.14503085,"ECCENTRICITY":0.00021443,"INCLINATION":87.8987,"RA_OF_ASC_NODE":327.8601,"ARG_OF_PERICENTER":93.3348,"MEAN_ANOMALY":266.8027,"EPHEMERIS_TYPE":0,"CLASSIFICATION_TYPE":"U","NORAD_CAT_ID":55829,"ELEMENT_SET_NO":999,"REV_AT_EPOCH":13430,"BSTAR":-0.00026732832,"MEAN_MOTION_DOT":-8.6e-7,"MEAN_MOTION_DDOT":0},{"OBJECT_NAME":"ONEWEB-0671","OBJECT_ID":"2023-029AL","EPOCH":"2025-12-07T22:18:17.397792","MEAN_MOTION":13.19725325,"ECCENTRICITY":0.0001957,"INCLINATION":87.9193,"RA_OF_ASC_NODE":343.0359,"ARG_OF_PERICENTER":89.0994,"MEAN_ANOMALY":271.0363,"EPHEMERIS_TYPE":0,"CLASSIFICATION_TYPE":"U","NORAD_CAT_ID":55830,"ELEMENT_SET_NO":999,"REV_AT_EPOCH":13367,"BSTAR":6.8511793e-5,"MEAN_MOTION_DOT":4.0e-7,"MEAN_MOTION_DDOT":0},{"OBJECT_NAME":"ONEWEB-0672","OBJECT_ID":"2023-029AM","EPOCH":"2025-12-07T23:01:16.654656","MEAN_MOTION":13.20769848,"ECCENTRICITY":0.00016007,"INCLINATION":87.9196,"RA_OF_ASC_NODE":312.5725,"ARG_OF_PERICENTER":87.0592,"MEAN_ANOMALY":273.0724,"EPHEMERIS_TYPE":0,"CLASSIFICATION_TYPE":"U","NORAD_CAT_ID":55831,"ELEMENT_SET_NO":999,"REV_AT_EPOCH":13590,"BSTAR":0.00013513697,"MEAN_MOTION_DOT":6.8e-7,"MEAN_MOTION_DDOT":0},{"OBJECT_NAME":"ONEWEB-0673","OBJECT_ID":"2023-029AN","EPOCH":"2025-12-07T23:34:29.352288","MEAN_MOTION":13.19695215,"ECCENTRICITY":0.00017543,"INCLINATION":87.9204,"RA_OF_ASC_NODE":343.0049,"ARG_OF_PERICENTER":91.5521,"MEAN_ANOMALY":268.5813,"EPHEMERIS_TYPE":0,"CLASSIFICATION_TYPE":"U","NORAD_CAT_ID":55832,"ELEMENT_SET_NO":999,"REV_AT_EPOCH":13368,"BSTAR":0.010530219,"MEAN_MOTION_DOT":4.229e-5,"MEAN_MOTION_DDOT":0}]
