ONEWEB-0656             
1 55817U 23029X   25341.91818952 -.00000019  00000+0 -79731-4 0  9992
2 55817  87.9197 312.5716 0001620  97.1571 262.9746 13.20770421135904
ONEWEB-0657             
1 55818U 23029Y   25341.93885683  .00000064  00000+0  12725-3 0  9997
2 55818  87.9186 343.0388 0000992  86.0184 274.1062 13.19726614133687
ONEWEB-0658             
1 55819U 23029Z   25341.93410960  .00000011  00000+0 -58784-5 0  9990
2 55819  87.9204 342.9923 0001967  76.4517 283.6835 13.19724973133698
ONEWEB-0660             
1 55820U 23029AA  25341.91878161 -.00000147  00000+0 -43182-3 0  9996
2 55820  87.8993 327.7981 0002148  87.5965 272.5411 13.14503844134270
ONEWEB-0661             
1 55821U 23029AB  25341.95367245  .00000190  00000+0  47688-3 0  9998
2 55821  87.8979 327.8568 0002128  90.9361 269.2013 13.14504705134260
ONEWEB-0662             
1 55822U 23029AC  25341.98855308 -.00000145  00000+0 -42455-3 0  9993
2 55822  87.8986 327.8560 0002148  85.8897 274.2478 13.14504588134316
ONEWEB-0663             
1 55823U 23029AD  25341.96527679 -.00000055  00000+0 -16689-3 0  9999
2 55823  87.9209 312.6282 0002232  79.4541 280.6843 13.20852491135907
ONEWEB-0664             
1 55824U 23029AE  25341.90555497 -.00000030  00000+0 -10673-3 0  9993
2 55824  87.9190 312.6465 0001982  93.7925 266.3435 13.20773306135899
ONEWEB-0665             
1 55825U 23029AF  25341.95050174  .00000153  00000+0  37764-3 0  9995
2 55825  87.8981 327.8353 0002050  83.8456 276.2907 13.14503887134281
ONEWEB-0666             
1 55826U 23029AG  25341.97500315 -.00000041  00000+0 -13230-3 0  9995
2 55826  87.9189 312.6215 0001104  83.4418 276.6841 13.20769503135913
ONEWEB-0667             
1 55827U 23029AH  25341.89295007  .00000055  00000+0  10250-3 0  9998
2 55827  87.9196 312.5702 0002003  85.4764 274.6598 13.20770993135896
ONEWEB-0669             
1 55828U 23029AJ  25341.96396919 -.00000026  00000+0 -96947-4 0  9999
2 55828  87.9188 312.5909 0001707 106.1656 253.9665 13.20770461135905
ONEWEB-0670             
1 55829U 23029AK  25341.92830454 -.00000086  00000+0 -26733-3 0  9994
2 55829  87.8987 327.8601 0002144  93.3348 266.8027 13.14503085134308
ONEWEB-0671             
1 55830U 23029AL  25341.92936803  .00000040  00000+0  68512-4 0  9991
2 55830  87.9193 343.0359 0001957  89.0994 271.0363 13.19725325133678
ONEWEB-0672             
1 55831U 23029AM  25341.95922054  .00000068  00000+0  13514-3 0  9999
2 55831  87.9196 312.5725 0001600  87.0592 273.0724 13.20769848135908
ONEWEB-0673             
1 55832U 23029AN  25341.98228417  .00004229  00000+0  10530-1 0  9991
2 55832  87.9204 343.0049 0001754  91.5521 268.5813 13.19695215133684
